{
  "type": "FeatureCollection",
  "features": [
    {
      "type": "Feature",
      "properties": {
        "norad_id": 22675,
        "name": "COSMOS 2251",
        "group": "cosmos-2251-debris",
        "lat": -68.62606823591726,
        "lon": -96.44427882435852,
        "alt_km": 793.1168276093049,
        "timestamp": "2025-12-15T15:53:20.240794+00:00",
        "meta_object_name": "COSMOS 2251",
        "meta_object_id": "1993-036A",
        "meta_epoch": "2025-12-14T21:48:46.837152",
        "meta_mean_motion": 14.3320541,
        "meta_eccentricity": 0.0024056,
        "meta_inclination": 74.0398,
        "meta_ra_of_asc_node": 311.92,
        "meta_arg_of_pericenter": 33.572,
        "meta_mean_anomaly": 326.6949,
        "meta_ephemeris_type": 0,
        "meta_classification_type": "U",
        "meta_norad_cat_id": 22675,
        "meta_element_set_no": 999,
        "meta_rev_at_epoch": 69804,
        "meta_bstar": 5.5544953e-05,
        "meta_mean_motion_dot": 1.27e-06,
        "meta_mean_motion_ddot": 0,
        "tle_line1": "1 22675U 93036A   25348.90887543  .00000127  00000+0  55545-4 0  9996",
        "tle_line2": "2 22675  74.0398 311.9200 0024056  33.5720 326.6949 14.33205410698047"
      },
      "geometry": {
        "type": "Point",
        "coordinates": [
          -96.44427882435852,
          -68.62606823591726
        ]
      }
    },
    {
      "type": "Feature",
      "properties": {
        "norad_id": 33757,
        "name": "COSMOS 2251 DEB",
        "group": "cosmos-2251-debris",
        "lat": -41.141896243821286,
        "lon": -56.20610677567164,
        "alt_km": 778.6622661156334,
        "timestamp": "2025-12-15T15:53:20.240824+00:00",
        "meta_object_name": "COSMOS 2251 DEB",
        "meta_object_id": "1993-036E",
        "meta_epoch": "2025-12-14T21:48:39.730752",
        "meta_mean_motion": 14.3258152,
        "meta_eccentricity": 0.00153357,
        "meta_inclination": 74.0369,
        "meta_ra_of_asc_node": 319.6498,
        "meta_arg_of_pericenter": 332.568,
        "meta_mean_anomaly": 61.2233,
        "meta_ephemeris_type": 0,
        "meta_classification_type": "U",
        "meta_norad_cat_id": 33757,
        "meta_element_set_no": 999,
        "meta_rev_at_epoch": 88027,
        "meta_bstar": 5.046478e-05,
        "meta_mean_motion_dot": 1.11e-06,
        "meta_mean_motion_ddot": 0,
        "tle_line1": "1 33757U 93036E   25348.90879318  .00000111  00000+0  50465-4 0  9999",
        "tle_line2": "2 33757  74.0369 319.6498 0015335 332.5680  61.2233 14.32581520880273"
      },
      "geometry": {
        "type": "Point",
        "coordinates": [
          -56.20610677567164,
          -41.141896243821286
        ]
      }
    },
    {
      "type": "Feature",
      "properties": {
        "norad_id": 33758,
        "name": "COSMOS 2251 DEB",
        "group": "cosmos-2251-debris",
        "lat": 69.90038970088939,
        "lon": -21.97891933746022,
        "alt_km": 725.4929823286802,
        "timestamp": "2025-12-15T15:53:20.240837+00:00",
        "meta_object_name": "COSMOS 2251 DEB",
        "meta_object_id": "1993-036F",
        "meta_epoch": "2025-12-14T18:14:27.460320",
        "meta_mean_motion": 14.51609705,
        "meta_eccentricity": 0.00173498,
        "meta_inclination": 74.0278,
        "meta_ra_of_asc_node": 211.2245,
        "meta_arg_of_pericenter": 277.9037,
        "meta_mean_anomaly": 152.695,
        "meta_ephemeris_type": 0,
        "meta_classification_type": "U",
        "meta_norad_cat_id": 33758,
        "meta_element_set_no": 999,
        "meta_rev_at_epoch": 88334,
        "meta_bstar": 0.0007133013,
        "meta_mean_motion_dot": 2.836e-05,
        "meta_mean_motion_ddot": 0,
        "tle_line1": "1 33758U 93036F   25348.76004005  .00002836  00000+0  71330-3 0  9996",
        "tle_line2": "2 33758  74.0278 211.2245 0017349 277.9037 152.6950 14.51609705883344"
      },
      "geometry": {
        "type": "Point",
        "coordinates": [
          -21.97891933746022,
          69.90038970088939
        ]
      }
    },
    {
      "type": "Feature",
      "properties": {
        "norad_id": 33760,
        "name": "COSMOS 2251 DEB",
        "group": "cosmos-2251-debris",
        "lat": -53.407228856934374,
        "lon": 118.77671282097558,
        "alt_km": 789.9118755151203,
        "timestamp": "2025-12-15T15:53:20.240849+00:00",
        "meta_object_name": "COSMOS 2251 DEB",
        "meta_object_id": "1993-036H",
        "meta_epoch": "2025-12-14T22:23:11.728896",
        "meta_mean_motion": 14.35674173,
        "meta_eccentricity": 0.00199605,
        "meta_inclination": 74.0322,
        "meta_ra_of_asc_node": 277.4314,
        "meta_arg_of_pericenter": 15.2073,
        "meta_mean_anomaly": 53.8722,
        "meta_ephemeris_type": 0,
        "meta_classification_type": "U",
        "meta_norad_cat_id": 33760,
        "meta_element_set_no": 999,
        "meta_rev_at_epoch": 88156,
        "meta_bstar": 0.0001163524,
        "meta_mean_motion_dot": 3.1e-06,
        "meta_mean_motion_ddot": 0,
        "tle_line1": "1 33760U 93036H   25348.93277464  .00000310  00000+0  11635-3 0  9996",
        "tle_line2": "2 33760  74.0322 277.4314 0019960  15.2073  53.8722 14.35674173881566"
      },
      "geometry": {
        "type": "Point",
        "coordinates": [
          118.77671282097558,
          -53.407228856934374
        ]
      }
    },
    {
      "type": "Feature",
      "properties": {
        "norad_id": 33761,
        "name": "COSMOS 2251 DEB",
        "group": "cosmos-2251-debris",
        "lat": -54.24856933216463,
        "lon": 90.1691081753816,
        "alt_km": 756.4004258158748,
        "timestamp": "2025-12-15T15:53:20.240860+00:00",
        "meta_object_name": "COSMOS 2251 DEB",
        "meta_object_id": "1993-036J",
        "meta_epoch": "2025-12-14T19:04:40.345824",
        "meta_mean_motion": 14.42552958,
        "meta_eccentricity": 0.00231244,
        "meta_inclination": 74.0367,
        "meta_ra_of_asc_node": 248.3497,
        "meta_arg_of_pericenter": 328.3279,
        "meta_mean_anomaly": 88.1057,
        "meta_ephemeris_type": 0,
        "meta_classification_type": "U",
        "meta_norad_cat_id": 33761,
        "meta_element_set_no": 999,
        "meta_rev_at_epoch": 88264,
        "meta_bstar": 0.00045987729,
        "meta_mean_motion_dot": 1.504e-05,
        "meta_mean_motion_ddot": 0,
        "tle_line1": "1 33761U 93036J   25348.79491141  .00001504  00000+0  45988-3 0  9995",
        "tle_line2": "2 33761  74.0367 248.3497 0023124 328.3279  88.1057 14.42552958882644"
      },
      "geometry": {
        "type": "Point",
        "coordinates": [
          90.1691081753816,
          -54.24856933216463
        ]
      }
    },
    {
      "type": "Feature",
      "properties": {
        "norad_id": 33762,
        "name": "COSMOS 2251 DEB",
        "group": "cosmos-2251-debris",
        "lat": 25.181024970198102,
        "lon": 116.9531814413751,
        "alt_km": 787.5399797709379,
        "timestamp": "2025-12-15T15:53:20.240870+00:00",
        "meta_object_name": "COSMOS 2251 DEB",
        "meta_object_id": "1993-036K",
        "meta_epoch": "2025-12-14T07:55:14.949696",
        "meta_mean_motion": 14.33664394,
        "meta_eccentricity": 0.00150662,
        "meta_inclination": 74.0418,
        "meta_ra_of_asc_node": 307.1189,
        "meta_arg_of_pericenter": 8.1757,
        "meta_mean_anomaly": 113.3893,
        "meta_ephemeris_type": 0,
        "meta_classification_type": "U",
        "meta_norad_cat_id": 33762,
        "meta_element_set_no": 999,
        "meta_rev_at_epoch": 88070,
        "meta_bstar": 7.5244323e-05,
        "meta_mean_motion_dot": 1.83e-06,
        "meta_mean_motion_ddot": 0,
        "tle_line1": "1 33762U 93036K   25348.33003414  .00000183  00000+0  75244-4 0  9999",
        "tle_line2": "2 33762  74.0418 307.1189 0015066   8.1757 113.3893 14.33664394880706"
      },
      "geometry": {
        "type": "Point",
        "coordinates": [
          116.9531814413751,
          25.181024970198102
        ]
      }
    },
    {
      "type": "Feature",
      "properties": {
        "norad_id": 33764,
        "name": "COSMOS 2251 DEB",
        "group": "cosmos-2251-debris",
        "lat": -4.87005668808915,
        "lon": -94.13631193539189,
        "alt_km": 772.4673197254369,
        "timestamp": "2025-12-15T15:53:20.240880+00:00",
        "meta_object_name": "COSMOS 2251 DEB",
        "meta_object_id": "1993-036M",
        "meta_epoch": "2025-12-14T21:53:12.842016",
        "meta_mean_motion": 14.39515004,
        "meta_eccentricity": 0.00238391,
        "meta_inclination": 74.0336,
        "meta_ra_of_asc_node": 268.646,
        "meta_arg_of_pericenter": 234.0067,
        "meta_mean_anomaly": 195.2443,
        "meta_ephemeris_type": 0,
        "meta_classification_type": "U",
        "meta_norad_cat_id": 33764,
        "meta_element_set_no": 999,
        "meta_rev_at_epoch": 88188,
        "meta_bstar": 0.00034791329,
        "meta_mean_motion_dot": 1.062e-05,
        "meta_mean_motion_ddot": 0,
        "tle_line1": "1 33764U 93036M   25348.91195419  .00001062  00000+0  34791-3 0  9990",
        "tle_line2": "2 33764  74.0336 268.6460 0023839 234.0067 195.2443 14.39515004881880"
      },
      "geometry": {
        "type": "Point",
        "coordinates": [
          -94.13631193539189,
          -4.87005668808915
        ]
      }
    }
  ]
}